1998-067XK              
1 65731U 98067XK  26024.73973597  .00205490  00000+0  11894-2 0  9990
2 65731  51.6251 277.4071 0004227 143.0939 217.0353 15.77428239 19904
RSP-03                  
1 65732U 98067XL  26024.79738104  .00390472  00000+0  14626-2 0  9991
2 65732  51.6211 274.7488 0005441 161.0679 199.0528 15.86292078 19951
YOTSUBA-KULOVER         
1 65941U 98067XN  26025.12776538  .00131213  00000+0  11843-2 0  9998
2 65941  51.6266 280.7696 0004469 160.9863 199.1301 15.67202627 16646
BOTAN                   
1 65942U 98067XP  26024.78759438  .00247627  00000+0  15184-2 0  9999
2 65942  51.6220 279.9774 0005363 167.3184 192.7951 15.75992958 16625
E-KAGAKU-1              
1 65943U 98067XQ  26024.74525476  .00118261  00000+0  10762-2 0  9997
2 65943  51.6279 282.7241 0003092 165.0419 195.0669 15.67057145 16582
HRC MONOBLOCK CAMERA    
1 66052U 98067XR  26024.75210934  .00051429  00000+0  68384-3 0  9996
2 66052  51.6291 286.5154 0000666  32.7434 327.3599 15.57665609 15539
HTV-X1                  
1 66174U 25241A   26025.20681506  .00014825  00000+0  28434-3 0  9994
2 66174  51.6319 287.2988 0011011  28.2365 331.9218 15.48167532   510
SZ-21 MODULE            
1 66515U 25246C   26025.28588396  .00041191  00000+0  40434-3 0  9999
2 66515  41.4751 109.8797 0003260 235.9064 124.1468 15.65266546 11260
SHENZHOU-22             
1 66645U 25272A   26025.24543662  .00030178  00000+0  35035-3 0  9999
2 66645  41.4666 112.2238 0009924 357.6550   2.4241 15.61047675267640
SOYUZ-MS 28             
1 66664U 25275A   26025.20681506  .00014825  00000+0  28434-3 0  9995
2 66664  51.6319 287.2988 0011011  28.2365 331.9218 15.48167532  1289
DUPLEX                  
1 66906U 98067XS  26024.94024903  .00034926  00000+0  55195-3 0  9993
2 66906  51.6306 287.7709 0001882  54.3804 305.7361 15.53137539  8323
1998-067XT              
1 66907U 98067XT  26024.73193951  .00104793  00000+0  13425-2 0  9990
2 66907  51.6289 287.8796 0003231 118.4461 241.6857 15.58344051  8302
